GLOBALSTAR M045         
1 25676U 99019A   24289.96350535 -.00000040  00000+0  46918-3 0  9990
2 25676  51.9965 281.3529 0000655  78.9328 298.1154 12.27048882163413
GLOBALSTAR M042         
1 25679U 99019D   24289.69618001 -.00000047  00000+0  42649-3 0  9992
2 25679  52.0043  21.1506 0003389 146.7924   5.6898 12.22070496155365
GLOBALSTAR M025         
1 25770U 99031A   24289.63085865 -.00000050  00000+0  55289-3 0  9996
2 25770  51.9859   5.8024 0001902 101.7661  46.3659 11.22554232454242
GLOBALSTAR M049         
1 25771U 99031B   24289.60050503 -.00000066  00000+0 -15663-4 0  9996
2 25771  51.9915  28.3414 0002578 334.3300  25.7368 11.12111521 90213
GLOBALSTAR M047         
1 25772U 99031C   24289.71342880 -.00000075  00000+0 -14047-3 0  9995
2 25772  51.9856  48.4106 0016321 200.2014 159.8147 11.31923815443420
GLOBALSTAR M052         
1 25773U 99031D   24289.77663646 -.00000055  00000+0  36098-3 0  9995
2 25773  51.9838 140.0580 0003364 111.9225 346.5637 11.15054745451248
